NORAD_CAT_ID,OBJECT_NAME,OBJECT_TYPE,EPOCH,MEAN_MOTION,ECCENTRICITY,INCLINATION,RA_OF_ASC_NODE,ARG_OF_PERICENTER,MEAN_ANOMALY,BSTAR,MEAN_MOTION_DOT,MEAN_MOTION_DDOT,TLE_LINE0,TLE_LINE1,TLE_LINE2,SEMIMAJOR_AXIS,PERIOD,APOGEE,PERIGEE,DECAYED
52482.0,STARLINK-3813,PAYLOAD,2023-11-09 06:09:23,15.0887584,0.0001073,53.2167,271.3525,89.2267,270.8848,0.0015228,0.00024054,0.0,0 STARLINK-3813,1 52482U 22049AH  23313.25652111  .00024054  00000-0  15228-2 0  9998,2 52482  53.2167 271.3525 0001073  89.2267 270.8848 15.08875840 83854,6917.771,95.435,540.378,538.894,0.0
52482.0,STARLINK-3813,PAYLOAD,2023-11-10 02:49:24,15.0884716,0.0001092,53.2165,267.4875,122.0233,238.0865,0.0010468,0.00016414,0.0,0 STARLINK-3813,1 52482U 22049AH  23314.11764282  .00016414  00000-0  10468-2 0  9999,2 52482  53.2165 267.4875 0001092 122.0233 238.0865 15.08847160 84148,6917.859,95.437,540.479,538.968,0.0
52482.0,STARLINK-3813,PAYLOAD,2023-11-10 13:57:06,15.08834055,0.0001739,53.2165,265.4057,80.5242,279.5947,0.00033626,5.067e-05,0.0,0 STARLINK-3813,1 52482U 22049AH  23314.58132833  .00005067  00000-0  33626-3 0  9995,2 52482  53.2165 265.4057 0001739  80.5242 279.5947 15.08834055 84054,6917.899,95.438,540.967,538.561,0.0
52482.0,STARLINK-3813,PAYLOAD,2023-11-11 02:40:12,15.0882703,0.0001389,53.2164,263.0258,77.1391,282.9756,0.00017361,2.475e-05,0.0,0 STARLINK-3813,1 52482U 22049AH  23315.11125157  .00002475  00000-0  17361-3 0  9994,2 52482  53.2164 263.0258 0001389  77.1391 282.9756 15.08827030 84295,6917.92,95.438,540.746,538.824,0.0
52482.0,STARLINK-3813,PAYLOAD,2023-11-11 05:50:58,15.08831066,0.0001269,53.2165,262.4315,91.7643,268.3494,0.00035477,5.361e-05,0.0,0 STARLINK-3813,1 52482U 22049AH  23315.24373100  .00005361  00000-0  35477-3 0  9996,2 52482  53.2165 262.4315 0001269  91.7643 268.3494 15.08831066 84158,6917.908,95.438,540.651,538.895,0.0
52482.0,STARLINK-3813,PAYLOAD,2023-11-12 05:41:45,15.08850875,0.0001336,53.2166,257.9694,94.0292,266.0853,0.00051982,7.997e-05,0.0,0 STARLINK-3813,1 52482U 22049AH  23316.23733034  .00007997  00000-0  51982-3 0  9998,2 52482  53.2166 257.9694 0001336  94.0292 266.0853 15.08850875 84466,6917.847,95.437,540.636,538.788,0.0
52482.0,STARLINK-3813,PAYLOAD,2023-11-12 13:38:41,15.08840224,0.0001366,53.2177,256.483,89.5499,270.565,0.00019702,2.849e-05,0.0,0 STARLINK-3813,1 52482U 22049AH  23316.56853410  .00002849  00000-0  19702-3 0  9990,2 52482  53.2177 256.4830 0001366  89.5499 270.5650 15.08840224 84355,6917.88,95.438,540.69,538.8,0.0
52482.0,STARLINK-3813,PAYLOAD,2023-11-12 20:00:14,15.08843796,0.0001668,53.2168,255.2945,82.1791,277.9391,0.00033049,4.976e-05,0.0,0 STARLINK-3813,1 52482U 22049AH  23316.83349574  .00004976  00000-0  33049-3 0  9994,2 52482  53.2168 255.2945 0001668  82.1791 277.9391 15.08843796 84550,6917.869,95.437,540.888,538.58,0.0
52482.0,STARLINK-3813,PAYLOAD,2023-11-13 13:29:28,15.08845776,0.0001752,53.2176,252.0227,86.0092,274.11,0.00033873,5.108e-05,0.0,0 STARLINK-3813,1 52482U 22049AH  23317.56213494  .00005108  00000-0  33873-3 0  9999,2 52482  53.2176 252.0227 0001752  86.0092 274.1100 15.08845776 84500,6917.863,95.437,540.94,538.516,0.0
52482.0,STARLINK-3813,PAYLOAD,2023-11-14 02:12:33,15.08848428,0.0001665,53.2181,249.6433,92.6226,267.4956,0.00026429,3.922e-05,0.0,0 STARLINK-3813,1 52482U 22049AH  23318.09205228  .00003922  00000-0  26429-3 0  9995,2 52482  53.2181 249.6433 0001665  92.6226 267.4956 15.08848428 84749,6917.855,95.437,540.871,538.568,0.0
52482.0,STARLINK-3813,PAYLOAD,2023-11-14 05:23:19,15.08851799,0.0001655,53.2178,249.0478,98.1445,261.9735,0.00024627,3.635e-05,0.0,0 STARLINK-3813,1 52482U 22049AH  23318.22452952  .00003635  00000-0  24627-3 0  9997,2 52482  53.2178 249.0478 0001655  98.1445 261.9735 15.08851799 84605,6917.844,95.437,540.854,538.564,0.0
52482.0,STARLINK-3813,PAYLOAD,2023-11-15 02:03:20,15.08841093,0.0001586,53.2184,245.1769,126.6416,233.4722,1.4442e-05,-5.8e-07,0.0,0 STARLINK-3813,1 52482U 22049AH  23319.08565214 -.00000058  00000-0  14442-4 0  9990,2 52482  53.2184 245.1769 0001586 126.6416 233.4722 15.08841093 84897,6917.877,95.437,540.839,538.645,0.0
52482.0,STARLINK-3813,PAYLOAD,2023-11-15 19:32:35,15.08841203,0.000155,53.218,241.9131,82.2051,277.9117,0.00011512,1.545e-05,0.0,0 STARLINK-3813,1 52482U 22049AH  23319.81429645  .00001545  00000-0  11512-3 0  9993,2 52482  53.2180 241.9131 0001550  82.2051 277.9117 15.08841203 84842,6917.877,95.437,540.814,538.669,0.0
52482.0,STARLINK-3813,PAYLOAD,2023-11-16 05:04:53,15.08848206,0.0001755,53.2185,240.1274,83.1449,276.9743,0.00017568,2.51e-05,0.0,0 STARLINK-3813,1 52482U 22049AH  23320.21173337  .00002510  00000-0  17568-3 0  9993,2 52482  53.2185 240.1274 0001755  83.1449 276.9743 15.08848206 85063,6917.855,95.437,540.934,538.506,0.0
52482.0,STARLINK-3813,PAYLOAD,2023-11-17 00:09:31,15.08840739,0.0001715,53.218,236.5588,92.2707,267.8482,8.2498e-05,1.025e-05,0.0,0 STARLINK-3813,1 52482U 22049AH  23321.00661629  .00001025  00000-0  82498-4 0  9992,2 52482  53.2180 236.5588 0001715  92.2707 267.8482 15.08840739 85184,6917.878,95.438,540.93,538.557,0.0
52482.0,STARLINK-3813,PAYLOAD,2023-11-17 17:38:46,15.08835977,0.0001387,53.2157,233.2888,76.7649,283.3498,-7.3631e-05,-1.459e-05,0.0,0 STARLINK-3813,1 52482U 22049AH  23321.73525907 -.00001459  00000-0 -73631-4 0  9992,2 52482  53.2157 233.2888 0001387  76.7649 283.3498 15.08835977 85292,6917.893,95.438,540.717,538.798,0.0
52482.0,STARLINK-3813,PAYLOAD,2023-11-18 11:08:00,15.08843518,0.0001631,53.2185,230.0201,84.5349,275.583,2.8116e-05,1.59e-06,0.0,0 STARLINK-3813,1 52482U 22049AH  23322.46389932  .00000159  00000-0  28116-4 0  9991,2 52482  53.2185 230.0201 0001631  84.5349 275.5830 15.08843518 85241,6917.87,95.437,540.863,538.606,0.0
52482.0,STARLINK-3813,PAYLOAD,2023-11-19 03:01:51,15.08846915,0.0001534,53.2184,227.0479,80.3888,279.7277,0.0001765,2.523e-05,0.0,0 STARLINK-3813,1 52482U 22049AH  23323.12629499  .00002523  00000-0  17650-3 0  9997,2 52482  53.2184 227.0479 0001534  80.3888 279.7277 15.08846915 85501,6917.859,95.437,540.785,538.663,0.0
52482.0,STARLINK-3813,PAYLOAD,2023-11-19 10:58:48,15.08841844,0.0001584,53.2187,225.5604,84.2507,275.8665,0.0001288,1.763e-05,0.0,0 STARLINK-3813,1 52482U 22049AH  23323.45750041  .00001763  00000-0  12880-3 0  9996,2 52482  53.2187 225.5604 0001584  84.2507 275.8665 15.08841844 85552,6917.875,95.437,540.836,538.644,0.0
52482.0,STARLINK-3813,PAYLOAD,2023-11-19 22:06:29,15.08845689,0.0001573,53.2187,223.478,94.7577,265.3595,0.00010955,1.456e-05,0.0,0 STARLINK-3813,1 52482U 22049AH  23323.92117612  .00001456  00000-0  10955-3 0  9999,2 52482  53.2187 223.4780 0001573  94.7577 265.3595 15.08845689 85462,6917.863,95.437,540.816,538.64,0.0
52482.0,STARLINK-3813,PAYLOAD,2023-11-20 02:52:38,15.088518,0.0001555,53.2175,222.5852,87.6725,272.4446,0.00014526,2.025e-05,0.0,0 STARLINK-3813,1 52482U 22049AH  23324.11989082  .00002025  00000-0  14526-3 0  9990,2 52482  53.2175 222.5852 0001555  87.6725 272.4446 15.08851800 85652,6917.844,95.437,540.785,538.634,0.0
52482.0,STARLINK-3813,PAYLOAD,2023-11-20 10:49:35,15.08840364,0.0001891,53.2182,221.1,79.4413,280.6792,5.3517e-05,5.64e-06,0.0,0 STARLINK-3813,1 52482U 22049AH  23324.45110194  .00000564  00000-0  53517-4 0  9997,2 52482  53.2182 221.1000 0001891  79.4413 280.6792 15.08840364 85700,6917.879,95.438,541.052,538.436,0.0
52482.0,STARLINK-3813,PAYLOAD,2023-11-20 21:57:17,15.08838552,0.0001402,53.2177,219.0178,81.1854,278.9297,8.6174e-05,1.084e-05,0.0,0 STARLINK-3813,1 52482U 22049AH  23324.91478059  .00001084  00000-0  86174-4 0  9998,2 52482  53.2177 219.0178 0001402  81.1854 278.9297 15.08838552 85619,6917.885,95.438,540.72,538.78,0.0
52482.0,STARLINK-3813,PAYLOAD,2023-11-21 10:40:21,15.08845988,0.0001548,53.2177,216.6389,83.6753,276.4416,2.4659e-05,1.05e-06,0.0,0 STARLINK-3813,1 52482U 22049AH  23325.44469734  .00000105  00000-0  24659-4 0  9990,2 52482  53.2177 216.6389 0001548  83.6753 276.4416 15.08845988 85697,6917.862,95.437,540.798,538.656,0.0
52482.0,STARLINK-3813,PAYLOAD,2023-11-21 20:12:40,15.0884447,0.0001593,53.216,214.8547,85.9933,274.1241,0.00010385,1.365e-05,0.0,0 STARLINK-3813,1 52482U 22049AH  23325.84213805  .00001365  00000-0  10385-3 0  9999,2 52482  53.2160 214.8547 0001593  85.9933 274.1241 15.08844470 85753,6917.867,95.437,540.834,538.63,0.0
52482.0,STARLINK-3813,PAYLOAD,2023-11-21 23:23:26,15.08847492,0.0001622,53.2165,214.26,86.9444,273.1734,9.0659e-05,1.155e-05,0.0,0 STARLINK-3813,1 52482U 22049AH  23325.97461650  .00001155  00000-0  90659-4 0  9996,2 52482  53.2165 214.2600 0001622  86.9444 273.1734 15.08847492 85936,6917.857,95.437,540.845,538.6,0.0
52482.0,STARLINK-3813,PAYLOAD,2023-11-22 21:38:50,15.08848326,0.000161,53.2164,210.0966,89.0261,271.0915,0.00020369,2.956e-05,0.0,0 STARLINK-3813,1 52482U 22049AH  23326.90197444  .00002956  00000-0  20369-3 0  9997,2 52482  53.2164 210.0966 0001610  89.0261 271.0915 15.08848326 85915,6917.855,95.437,540.834,538.606,0.0
52482.0,STARLINK-3813,PAYLOAD,2023-11-23 02:24:59,15.0885458,0.0001619,53.2162,209.2026,102.0253,258.092,0.0002969,4.442e-05,0.0,0 STARLINK-3813,1 52482U 22049AH  23327.10068955  .00004442  00000-0  29690-3 0  9992,2 52482  53.2162 209.2026 0001619 102.0253 258.0920 15.08854580 86108,6917.836,95.437,540.821,538.581,0.0
52482.0,STARLINK-3813,PAYLOAD,2023-11-23 19:54:15,15.08828741,0.000222,53.2158,205.9246,126.5497,233.57,-0.0002127,-3.671e-05,0.0,0 STARLINK-3813,1 52482U 22049AH  23327.82934193 -.00003671  00000-0 -21270-3 0  9998,2 52482  53.2158 205.9246 0002220 126.5497 233.5700 15.08828741 86216,6917.915,95.438,541.316,538.244,0.0
52482.0,STARLINK-3813,PAYLOAD,2023-11-23 21:29:38,15.08825289,0.0001504,53.2163,205.6358,94.7009,265.4155,-0.00016122,-2.852e-05,0.0,0 STARLINK-3813,1 52482U 22049AH  23327.89558731 -.00002852  00000-0 -16122-3 0  9995,2 52482  53.2163 205.6358 0001504  94.7009 265.4155 15.08825289 86067,6917.925,95.438,540.831,538.75,0.0
